{
  "norad_id": 62225,
  "name": "STARLINK-11471 [DTC]",
  "history": [
    {
      "epoch": "2026-03-28T18:51:07.270848Z",
      "apogee_km": 360.2294295555539,
      "perigee_km": 358.02876895689315,
      "latitude_deg": 2.4594371387611818e-05,
      "longitude_deg": -102.05583769471045,
      "height_km": 360.54292562737436,
      "semi_major_axis_km": 6737.266099256223,
      "eccentricity": 0.00016332,
      "inclination_deg": 53.1571,
      "raan_deg": 6.9254,
      "arg_perigee_deg": 117.0797,
      "mean_anomaly_deg": 243.0388,
      "mean_motion_rev_day": 15.69918874
    },
    {
      "epoch": "2026-03-29T04:01:13.573344Z",
      "apogee_km": 360.29018311794516,
      "perigee_km": 358.723007217709,
      "latitude_deg": -2.2929890498412524e-05,
      "longitude_deg": 118.15843297697428,
      "height_km": 360.2116498759272,
      "semi_major_axis_km": 6737.643595167827,
      "eccentricity": 0.0001163,
      "inclination_deg": 53.157,
      "raan_deg": 5.0425,
      "arg_perigee_deg": 74.585,
      "mean_anomaly_deg": 285.5296,
      "mean_motion_rev_day": 15.69786937
    }
  ]
}